{
  "type": "FeatureCollection",
  "features": [
    {
      "type": "Feature",
      "properties": {
        "norad_id": 60182,
        "name": "ALOS-4 (DAICHI-4)",
        "group": "resource",
        "lat": 72.08627769596761,
        "lon": 69.57503701671868,
        "alt_km": 623.1581450485546,
        "timestamp": "2025-12-26T10:30:49.917300+00:00",
        "meta_object_name": "ALOS-4 (DAICHI-4)",
        "meta_object_id": "2024-123A",
        "meta_epoch": "2025-12-26T05:18:41.872608",
        "meta_mean_motion": 14.79474592,
        "meta_eccentricity": 0.0001403,
        "meta_inclination": 97.9216,
        "meta_ra_of_asc_node": 94.876,
        "meta_arg_of_pericenter": 100.7354,
        "meta_mean_anomaly": 259.4015,
        "meta_ephemeris_type": 0,
        "meta_classification_type": "U",
        "meta_norad_cat_id": 60182,
        "meta_element_set_no": 999,
        "meta_rev_at_epoch": 8030,
        "meta_bstar": 0.00029406,
        "meta_mean_motion_dot": 2.145e-05,
        "meta_mean_motion_ddot": 0,
        "tle_line1": "1 60182U 24123A   25360.22131797  .00002145  00000+0  29406-3 0  9992",
        "tle_line2": "2 60182  97.9216  94.8760 0001403 100.7354 259.4015 14.79474592 80304"
      },
      "geometry": {
        "type": "Point",
        "coordinates": [
          69.57503701671868,
          72.08627769596761
        ]
      }
    },
    {
      "type": "Feature",
      "properties": {
        "norad_id": 60452,
        "name": "LEGION 3",
        "group": "resource",
        "lat": -27.201912299390614,
        "lon": 87.64237038520038,
        "alt_km": 514.2108010536731,
        "timestamp": "2025-12-26T10:30:49.917310+00:00",
        "meta_object_name": "LEGION 3",
        "meta_object_id": "2024-146A",
        "meta_epoch": "2025-12-26T01:38:14.896608",
        "meta_mean_motion": 15.15894786,
        "meta_eccentricity": 0.0015767,
        "meta_inclination": 45.0002,
        "meta_ra_of_asc_node": 238.6741,
        "meta_arg_of_pericenter": 269.5324,
        "meta_mean_anomaly": 90.3748,
        "meta_ephemeris_type": 0,
        "meta_classification_type": "U",
        "meta_norad_cat_id": 60452,
        "meta_element_set_no": 999,
        "meta_rev_at_epoch": 7575,
        "meta_bstar": 0.00028452,
        "meta_mean_motion_dot": 5.294e-05,
        "meta_mean_motion_ddot": 0,
        "tle_line1": "1 60452U 24146A   25360.06822797  .00005294  00000+0  28452-3 0  9994",
        "tle_line2": "2 60452  45.0002 238.6741 0015767 269.5324  90.3748 15.15894786 75757"
      },
      "geometry": {
        "type": "Point",
        "coordinates": [
          87.64237038520038,
          -27.201912299390614
        ]
      }
    },
    {
      "type": "Feature",
      "properties": {
        "norad_id": 60453,
        "name": "LEGION 4",
        "group": "resource",
        "lat": -27.194814111056417,
        "lon": 179.37612157333987,
        "alt_km": 526.1442016294868,
        "timestamp": "2025-12-26T10:30:49.917321+00:00",
        "meta_object_name": "LEGION 4",
        "meta_object_id": "2024-146B",
        "meta_epoch": "2025-12-26T03:13:15.917664",
        "meta_mean_motion": 15.15969113,
        "meta_eccentricity": 0.0007962,
        "meta_inclination": 45.0397,
        "meta_ra_of_asc_node": 330.1107,
        "meta_arg_of_pericenter": 26.1315,
        "meta_mean_anomaly": 333.9965,
        "meta_ephemeris_type": 0,
        "meta_classification_type": "U",
        "meta_norad_cat_id": 60453,
        "meta_element_set_no": 999,
        "meta_rev_at_epoch": 7461,
        "meta_bstar": 0.00032127,
        "meta_mean_motion_dot": 6.014e-05,
        "meta_mean_motion_ddot": 0,
        "tle_line1": "1 60453U 24146B   25360.13421201  .00006014  00000+0  32127-3 0  9993",
        "tle_line2": "2 60453  45.0397 330.1107 0007962  26.1315 333.9965 15.15969113 74612"
      },
      "geometry": {
        "type": "Point",
        "coordinates": [
          179.37612157333987,
          -27.194814111056417
        ]
      }
    },
    {
      "type": "Feature",
      "properties": {
        "norad_id": 60989,
        "name": "SENTINEL-2C",
        "group": "resource",
        "lat": -37.00272753571372,
        "lon": 79.24506140723415,
        "alt_km": 796.0793228462608,
        "timestamp": "2025-12-26T10:30:49.917331+00:00",
        "meta_object_name": "SENTINEL-2C",
        "meta_object_id": "2024-157A",
        "meta_epoch": "2025-12-26T03:58:31.725408",
        "meta_mean_motion": 14.30818046,
        "meta_eccentricity": 0.0001387,
        "meta_inclination": 98.5666,
        "meta_ra_of_asc_node": 72.4538,
        "meta_arg_of_pericenter": 102.8528,
        "meta_mean_anomaly": 257.2809,
        "meta_ephemeris_type": 0,
        "meta_classification_type": "U",
        "meta_norad_cat_id": 60989,
        "meta_element_set_no": 999,
        "meta_rev_at_epoch": 6824,
        "meta_bstar": 0.00010054,
        "meta_mean_motion_dot": 2.2e-06,
        "meta_mean_motion_ddot": 0,
        "tle_line1": "1 60989U 24157A   25360.16564497  .00000220  00000+0  10054-3 0  9995",
        "tle_line2": "2 60989  98.5666  72.4538 0001387 102.8528 257.2809 14.30818046 68246"
      },
      "geometry": {
        "type": "Point",
        "coordinates": [
          79.24506140723415,
          -37.00272753571372
        ]
      }
    },
    {
      "type": "Feature",
      "properties": {
        "norad_id": 61735,
        "name": "IONOSFERA-M 1",
        "group": "resource",
        "lat": -10.129854413163947,
        "lon": 48.605582434263816,
        "alt_km": 820.5275896447038,
        "timestamp": "2025-12-26T10:30:49.917344+00:00",
        "meta_object_name": "IONOSFERA-M 1",
        "meta_object_id": "2024-199A",
        "meta_epoch": "2025-12-26T04:33:33.774336",
        "meta_mean_motion": 14.2271696,
        "meta_eccentricity": 2.94e-05,
        "meta_inclination": 98.7396,
        "meta_ra_of_asc_node": 229.9344,
        "meta_arg_of_pericenter": 4.4693,
        "meta_mean_anomaly": 355.6487,
        "meta_ephemeris_type": 0,
        "meta_classification_type": "U",
        "meta_norad_cat_id": 61735,
        "meta_element_set_no": 999,
        "meta_rev_at_epoch": 10310,
        "meta_bstar": 4.4443e-05,
        "meta_mean_motion_dot": 5.5e-07,
        "meta_mean_motion_ddot": 0,
        "tle_line1": "1 61735U 24199A   25360.18997424  .00000055  00000+0  44443-4 0  9999",
        "tle_line2": "2 61735  98.7396 229.9344 0000294   4.4693 355.6487 14.22716960103101"
      },
      "geometry": {
        "type": "Point",
        "coordinates": [
          48.605582434263816,
          -10.129854413163947
        ]
      }
    },
    {
      "type": "Feature",
      "properties": {
        "norad_id": 61736,
        "name": "IONOSFERA-M 2",
        "group": "resource",
        "lat": 12.61869724258391,
        "lon": -131.8806764705946,
        "alt_km": 817.0639834244894,
        "timestamp": "2025-12-26T10:30:49.917355+00:00",
        "meta_object_name": "IONOSFERA-M 2",
        "meta_object_id": "2024-199B",
        "meta_epoch": "2025-12-26T03:42:09.251136",
        "meta_mean_motion": 14.22719114,
        "meta_eccentricity": 0.0001873,
        "meta_inclination": 98.7394,
        "meta_ra_of_asc_node": 229.8113,
        "meta_arg_of_pericenter": 93.2609,
        "meta_mean_anomaly": 266.8783,
        "meta_ephemeris_type": 0,
        "meta_classification_type": "U",
        "meta_norad_cat_id": 61736,
        "meta_element_set_no": 999,
        "meta_rev_at_epoch": 10622,
        "meta_bstar": 4.6056e-05,
        "meta_mean_motion_dot": 5.9e-07,
        "meta_mean_motion_ddot": 0,
        "tle_line1": "1 61736U 24199B   25360.15427374  .00000059  00000+0  46056-4 0  9995",
        "tle_line2": "2 61736  98.7394 229.8113 0001873  93.2609 266.8783 14.22719114106222"
      },
      "geometry": {
        "type": "Point",
        "coordinates": [
          -131.8806764705946,
          12.61869724258391
        ]
      }
    },
    {
      "type": "Feature",
      "properties": {
        "norad_id": 63772,
        "name": "BIOMASS",
        "group": "resource",
        "lat": -69.98860057415268,
        "lon": -17.67916525826587,
        "alt_km": 676.9311166369544,
        "timestamp": "2025-12-26T10:30:49.917365+00:00",
        "meta_object_name": "BIOMASS",
        "meta_object_id": "2025-090A",
        "meta_epoch": "2025-12-26T02:49:31.508256",
        "meta_mean_motion": 14.67540449,
        "meta_eccentricity": 0.0001052,
        "meta_inclination": 98.0697,
        "meta_ra_of_asc_node": 184.9324,
        "meta_arg_of_pericenter": 84.6676,
        "meta_mean_anomaly": 275.4649,
        "meta_ephemeris_type": 0,
        "meta_classification_type": "U",
        "meta_norad_cat_id": 63772,
        "meta_element_set_no": 999,
        "meta_rev_at_epoch": 3530,
        "meta_bstar": 0.00023089,
        "meta_mean_motion_dot": 1.262e-05,
        "meta_mean_motion_ddot": 0,
        "tle_line1": "1 63772U 25090A   25360.11772579  .00001262  00000+0  23089-3 0  9991",
        "tle_line2": "2 63772  98.0697 184.9324 0001052  84.6676 275.4649 14.67540449 35304"
      },
      "geometry": {
        "type": "Point",
        "coordinates": [
          -17.67916525826587,
          -69.98860057415268
        ]
      }
    }
  ]
}